CORIOLIS                
1 27640U 03001A   24129.96485511  .00000208  00000+0  11974-3 0  9994
2 27640  98.7141 137.8120 0012924 267.7875  92.1822 14.19453566105074
CUTE-1 (CO-55)          
1 27844U 03031E   24130.00288309  .00000527  00000+0  25223-3 0  9992
2 27844  98.6781 137.5788 0008483 256.6495 103.3738 14.23207466 82241
CUBESAT XI-IV (CO-57)   
1 27848U 03031J   24129.78104158  .00000450  00000+0  22081-3 0  9992
2 27848  98.6811 137.6269 0008363 275.7221  84.3003 14.22656740 81930
MOZHAYETS 4 (RS-22)     
1 27939U 03042A   24130.21893810  .00002479  00000+0  42376-3 0  9997
2 27939  98.2865 285.8172 0012247 177.9237 306.9738 14.69758748102553
IRS-P6 (RESOURCESAT-1)  
1 28051U 03046A   24130.20380108  .00000504  00000+0  18520-3 0  9998
2 28051  98.2964 188.9775 0065979 125.2607 303.3553 14.35427556 70203
SAUDISAT 2              
1 28371U 04025F   24129.93235102  .00000573  00000+0  14242-3 0  9995
2 28371  98.4809 102.4451 0026054 137.5931 222.7285 14.55426495 53836
COSMOS 2407             
1 28380U 04028A   24129.97831453  .00000069  00000+0  55172-4 0  9991
2 28380  82.9577 284.4322 0038048 242.7936 238.4532 13.76205654994066
COSMOS 2414             
1 28521U 05002A   24129.85699127  .00000088  00000+0  60660-4 0  9997
2 28521  82.9482 265.4590 0040210   5.0965 355.0599 13.87768199977138
INMARSAT 4-F1           
1 28628U 05009A   24129.61348715  .00000031  00000+0  00000+0 0  9995
2 28628   4.2397  40.7791 0002322  26.0637 199.0405  1.00272240 69959
HAMSAT (VO-52)          
1 28650U 05017B   24129.95750280  .00006779  00000+0  58877-3 0  9994
2 28650  97.9837 115.5169 0021621  91.5007 268.8690 14.97175633 31120
NOAA 18                 
1 28654U 05018A   24130.19725284  .00000349  00000+0  20985-3 0  9999
2 28654  98.8744 207.4854 0014613 169.7900 190.3571 14.13192223977753
SJ-7                    
1 28737U 05024A   24129.95499698  .00007755  00000+0  55229-3 0  9994
2 28737  97.7690 135.1127 0023167 148.3387 211.9237 15.04674646 31664
CUBESAT XI-V            
1 28895U 05043F   24129.90188529  .00002829  00000+0  50744-3 0  9997
2 28895  98.1960 265.6922 0016953 120.4274 239.8608 14.67453830988690
CLOUDSAT                
1 29107U 06016A   24129.96712047  .00002931  00000+0  37404-3 0  9991
2 29107  98.4066 113.5865 0004288 302.6190  57.4607 14.82290439960350
CALIPSO                 
1 29108U 06016B   24129.96813630  .00002248  00000+0  42331-3 0  9998
2 29108  98.4166 110.8725 0001586  97.6161 262.5222 14.65587240960200
HINODE (SOLAR-B)        
1 29479U 06041A   24129.90563404  .00001210  00000+0  22757-3 0  9990
2 29479  98.0912 145.7866 0017523 200.5666 159.4834 14.66305006942024
METOP-A                 
1 29499U 06044A   24129.95289163  .00002162  00000+0  27929-3 0  9990
2 29499  98.3569 204.1053 0188661 353.3248 179.4570 14.70410522912166
SHIJIAN-6 02B (SJ-6 02B)
1 29506U 06046B   24130.21868235  .00003465  00000+0  30536-3 0  9990
2 29506  97.7415 155.4932 0003867  85.8895 274.2769 14.97103548955506
DMSP 5D-3 F17 (USA 191) 
1 29522U 06050A   24130.21035746  .00000244  00000+0  15006-3 0  9993
2 29522  98.7453 141.5901 0011340  90.9877 269.2596 14.14458951903685
LAPAN-TUBSAT            
1 29709U 07001A   24130.17029114  .00001127  00000+0  14225-3 0  9997
2 29709  98.0666 104.9505 0012908 161.4722 198.6964 14.83904746937021
HAIYANG-1B              
1 31113U 07010A   24129.99946073  .00000168  00000+0  80246-4 0  9990
2 31113  98.2957 133.8199 0012883 327.4409  32.5979 14.30589752891373
BEIDOU-2 M1             
1 31115U 07011A   24125.23359871 -.00000029  00000+0  00000+0 0  9992
2 31115  51.2734 245.0003 0001443   5.6116 354.3666  1.77349098 62425
CAPE-1                  
1 31130U 07012P   24129.85003536  .00002745  00000+0  55034-3 0  9993
2 31130  98.3489  79.8893 0089359 309.5962  49.7372 14.60084405905865
AIM                     
1 31304U 07015A   24129.90905323  .00091613  00000+0  11519-2 0  9991
2 31304  97.9005 101.3488 0006169 109.6917 250.5004 15.59348101936992
CBERS 2B                
1 32062U 07042A   24130.13408991  .00000395  00000+0  13645-3 0  9999
2 32062  98.2993  81.9276 0032371 130.0836 240.8787 14.40513240873980
COSMO-SKYMED 2          
1 32376U 07059A   24130.21610645  .00000994  00000+0  13142-3 0  9992
2 32376  97.8866 313.9319 0001449  91.5867 268.5512 14.82141488888172
CARTOSAT-2A             
1 32783U 08021A   24130.13097250  .00001367  00000+0  19308-3 0  9991
2 32783  97.8685 189.4326 0013357  89.6016 270.6726 14.78695374865238
CUTE-1.7+APD II (CO-65) 
1 32785U 08021C   24129.90158403  .00006707  00000+0  59967-3 0  9992
2 32785  97.7520  95.5802 0013069  96.9488 263.3220 14.96144175869675
COMPASS-1               
1 32787U 08021E   24129.91343557  .00017522  00000+0  10635-2 0  9996
2 32787  97.6203 106.4507 0009055 353.5993   6.5119 15.10547235871859
AAUSAT-II               
1 32788U 08021F   24130.18222249  .00023340  00000+0  12370-2 0  9995
2 32788  97.5931 110.3672 0003480 336.5677  23.5396 15.15384193872517
SEEDS II (CO-66)        
1 32791U 08021J   24129.46710960  .00011521  00000+0  86305-3 0  9998
2 32791  97.6886 100.8909 0007224  83.4304 276.7743 15.02842714870557
YUBILEINY (RS-30)       
1 32953U 08025A   24130.19958479  .00000006  00000+0 -26780-4 0  9992
2 32953  82.4990 113.7371 0019072 186.1561 173.9288 12.43140138724284
FENGYUN 3A              
1 32958U 08026A   24130.11275209  .00000201  00000+0  11642-3 0  9999
2 32958  98.6017  78.3676 0008589 177.8831 182.2383 14.19074316826416
HUANJING 1A (HJ-1A)     
1 33320U 08041A   24130.21725910  .00002569  00000+0  34703-3 0  9992
2 33320  97.6320 139.1597 0021638 135.3356 224.9605 14.79717347844599
HUANJING 1B (HJ-1B)     
1 33321U 08041B   24130.22973827  .00001628  00000+0  21878-3 0  9990
2 33321  97.6281 143.7128 0038482 180.9895 179.1248 14.80078696844612
SHIJIAN-6 03A (SJ-6 03A)
1 33408U 08053A   24129.95699881  .00008684  00000+0  65070-3 0  9993
2 33408  97.8770 130.3800 0016413 111.5738 248.7237 15.02834890846814
SHIJIAN-6 03B (SJ-6 03B)
1 33409U 08053B   24130.21608988  .00003677  00000+0  30870-3 0  9990
2 33409  97.8855 127.6666 0017857  88.3552 271.9716 14.98855202847327
CHUANGXIN 1-02 (CX-1-02)
1 33434U 08056B   24130.19331112  .00000174  00000+0  84942-4 0  9999
2 33434  98.6757 150.4059 0013359 233.8430 126.1517 14.29787926809093
PRISM (HITOMI)          
1 33493U 09002B   24129.84480737  .00022967  00000+0  11539-2 0  9998
2 33493  98.2088 174.1285 0012326  30.8411 329.3542 15.17221034833073
STARS (KUKAI)           
1 33498U 09002G   24129.69427338  .00005139  00000+0  60811-3 0  9994
2 33498  98.1220  43.1505 0010195 166.1531 193.9965 14.85018505823819
KKS-1 (KISEKI)          
1 33499U 09002H   24130.17261327  .00002565  00000+0  35811-3 0  9996
2 33499  98.1427  31.3632 0007046 254.2672 105.7761 14.78552625822783
NOAA 19                 
1 33591U 09005A   24130.14320375  .00000278  00000+0  17369-3 0  9995
2 33591  99.0498 185.5246 0014467  46.1629 314.0735 14.12991031786110
YAOGAN-6                
1 34839U 09021A   24130.18026963  .00021351  00000+0  43205-3 0  9992
2 34839  97.1693  98.0258 0016018 329.2908  30.7403 15.46320240837423
UK-DMC 2                
1 35683U 09041C   24130.15065949  .00001539  00000+0  24599-3 0  9997
2 35683  97.7762 279.4186 0001279 103.4439 256.6912 14.73174243793269
METEOR-M 1              
1 35865U 09049A   24130.18050935  .00000222  00000+0  11851-3 0  9994
2 35865  98.6307  92.2854 0002915  39.4390 320.7000 14.22687867760025
OCEANSAT-2              
1 35931U 09051A   24130.17852051 -.00000152  00000+0 -78557-4 0  9990
2 35931  98.2677 182.7257 0015870 244.7432 115.2090 13.99458682771762
SWISSCUBE               
1 35932U 09051B   24129.93609592  .00001602  00000+0  35233-3 0  9995
2 35932  98.4765  12.4582 0008669  80.6453 279.5725 14.58895932776832
BEESAT-1                
1 35933U 09051C   24129.65949814  .00001546  00000+0  34215-3 0  9995
2 35933  98.4692  13.1361 0006957  91.8495 268.3500 14.58652661776863
ITUPSAT1                
1 35935U 09051E   24129.64596734  .00001423  00000+0  32279-3 0  9997
2 35935  98.4789  12.9278 0009195  97.7695 262.4547 14.57621560776500
DMSP 5D-3 F18 (USA 210) 
1 35951U 09057A   24130.20719243  .00000478  00000+0  27396-3 0  9990
2 35951  98.8120 106.0872 0009933 279.6822  80.3228 14.14093777750858
PROBA-2                 
1 36037U 09059B   24129.77654002  .00000453  00000+0  11823-3 0  9990
2 36037  98.2312 313.8792 0014318 132.7954 227.4449 14.53897325769682
YAOGAN-7                
1 36110U 09069A   24130.16830631  .00000952  00000+0  14475-3 0  9992
2 36110  98.1108   5.8682 0025414 356.7596   3.3444 14.76155667776136
XIWANG-1 (HOPE-1)       
1 36122U 09072B   24129.81846725 -.00000035  00000+0  21480-4 0  9998
2 36122 100.2916  89.1304 0007316 188.6989 171.3999 13.16400067691773
RADUGA-1M 2             
1 36358U 10002A   24128.85470325 -.00000185  00000+0  00000+0 0  9992
2 36358   1.6189  88.9256 0001846 295.0694 234.9526  1.00272181 42362
COSMOS 2463             
1 36519U 10017A   24129.95918538  .00000061  00000+0  50001-4 0  9995
2 36519  82.9583  94.8734 0037573 103.8316 317.3992 13.71554926702481
CARTOSAT-2B             
1 36795U 10035A   24130.16755311  .00001552  00000+0  21829-3 0  9995
2 36795  97.8627 189.1353 0013254 160.4496 199.7226 14.78704558746288
AISSAT 1                
1 36797U 10035C   24129.88604744  .00003620  00000+0  37327-3 0  9995
2 36797  98.1913 349.9699 0011665  77.4376 282.8145 14.90843383749314
TISAT 1                 
1 36799U 10035E   24129.64407148  .00010278  00000+0  79684-3 0  9999
2 36799  98.0919  17.3793 0005418  10.0288 350.1042 15.01591689751125
YAOGAN-10               
1 36834U 10038A   24130.19326701  .00001279  00000+0  16511-3 0  9990
2 36834  97.9505 147.5485 0001753  91.4194 356.8504 14.82714627743220
